{
  "type": "FeatureCollection",
  "features": [
    {
      "type": "Feature",
      "properties": {
        "norad_id": 58654,
        "name": "BEIDOU-3 M28 (C50)",
        "group": "beidou",
        "lat": 9.613916807237747,
        "lon": 75.4258971342011,
        "alt_km": 21528.707875557207,
        "timestamp": "2025-12-08T03:50:07.262874+00:00",
        "meta_object_name": "BEIDOU-3 M28 (C50)",
        "meta_object_id": "2023-207A",
        "meta_epoch": "2025-12-06T12:45:22.310208",
        "meta_mean_motion": 1.86229594,
        "meta_eccentricity": 0.00021908,
        "meta_inclination": 55.5792,
        "meta_ra_of_asc_node": 68.8117,
        "meta_arg_of_pericenter": 267.5881,
        "meta_mean_anomaly": 92.402,
        "meta_ephemeris_type": 0,
        "meta_classification_type": "U",
        "meta_norad_cat_id": 58654,
        "meta_element_set_no": 999,
        "meta_rev_at_epoch": 1325,
        "meta_bstar": 0,
        "meta_mean_motion_dot": -4.7e-07,
        "meta_mean_motion_ddot": 0,
        "tle_line1": "1 58654U 23207A   25340.53150822 -.00000047  00000+0  00000+0 0  9992",
        "tle_line2": "2 58654  55.5792  68.8117 0002190 267.5881  92.4020  1.86229594 13257"
      },
      "geometry": {
        "type": "Point",
        "coordinates": [
          75.4258971342011,
          9.613916807237747
        ]
      }
    },
    {
      "type": "Feature",
      "properties": {
        "norad_id": 58655,
        "name": "BEIDOU-3 M26 (C48)",
        "group": "beidou",
        "lat": 26.480768168470245,
        "lon": -131.18752000500788,
        "alt_km": 21527.540661671082,
        "timestamp": "2025-12-08T03:50:07.262885+00:00",
        "meta_object_name": "BEIDOU-3 M26 (C48)",
        "meta_object_id": "2023-207B",
        "meta_epoch": "2025-12-06T07:54:02.813472",
        "meta_mean_motion": 1.86231106,
        "meta_eccentricity": 0.00035957,
        "meta_inclination": 55.5812,
        "meta_ra_of_asc_node": 68.8048,
        "meta_arg_of_pericenter": 252.9675,
        "meta_mean_anomaly": 107.0074,
        "meta_ephemeris_type": 0,
        "meta_classification_type": "U",
        "meta_norad_cat_id": 58655,
        "meta_element_set_no": 999,
        "meta_rev_at_epoch": 1323,
        "meta_bstar": 0,
        "meta_mean_motion_dot": -4.8e-07,
        "meta_mean_motion_ddot": 0,
        "tle_line1": "1 58655U 23207B   25340.32919923 -.00000048  00000+0  00000+0 0  9996",
        "tle_line2": "2 58655  55.5812  68.8048 0003595 252.9675 107.0074  1.86231106 13235"
      },
      "geometry": {
        "type": "Point",
        "coordinates": [
          -131.18752000500788,
          26.480768168470245
        ]
      }
    },
    {
      "type": "Feature",
      "properties": {
        "norad_id": 61186,
        "name": "BEIDOU-3 M25 (C47)",
        "group": "beidou",
        "lat": -54.2394981490755,
        "lon": -151.0489568197427,
        "alt_km": 21520.925525877807,
        "timestamp": "2025-12-08T03:50:07.262897+00:00",
        "meta_object_name": "BEIDOU-3 M25 (C47)",
        "meta_object_id": "2024-168B",
        "meta_epoch": "2025-12-07T05:53:04.008192",
        "meta_mean_motion": 1.86229774,
        "meta_eccentricity": 0.00054576,
        "meta_inclination": 54.6469,
        "meta_ra_of_asc_node": 308.9099,
        "meta_arg_of_pericenter": 295.3065,
        "meta_mean_anomaly": 75.7113,
        "meta_ephemeris_type": 0,
        "meta_classification_type": "U",
        "meta_norad_cat_id": 61186,
        "meta_element_set_no": 999,
        "meta_rev_at_epoch": 821,
        "meta_bstar": 0,
        "meta_mean_motion_dot": -7.1e-07,
        "meta_mean_motion_ddot": 0,
        "tle_line1": "1 61186U 24168B   25341.24518528 -.00000071  00000+0  00000+0 0  9990",
        "tle_line2": "2 61186  54.6469 308.9099 0005457 295.3065  75.7113  1.86229774  8218"
      },
      "geometry": {
        "type": "Point",
        "coordinates": [
          -151.0489568197427,
          -54.2394981490755
        ]
      }
    },
    {
      "type": "Feature",
      "properties": {
        "norad_id": 61187,
        "name": "BEIDOU-3 M27 (C49)",
        "group": "beidou",
        "lat": 31.03103728813545,
        "lon": -25.88987656687197,
        "alt_km": 21521.87152541343,
        "timestamp": "2025-12-08T03:50:07.262908+00:00",
        "meta_object_name": "BEIDOU-3 M27 (C49)",
        "meta_object_id": "2024-168C",
        "meta_epoch": "2025-12-07T02:45:45.916992",
        "meta_mean_motion": 1.86229917,
        "meta_eccentricity": 0.00022869,
        "meta_inclination": 54.6424,
        "meta_ra_of_asc_node": 308.8981,
        "meta_arg_of_pericenter": 332.2687,
        "meta_mean_anomaly": 86.4832,
        "meta_ephemeris_type": 0,
        "meta_classification_type": "U",
        "meta_norad_cat_id": 61187,
        "meta_element_set_no": 999,
        "meta_rev_at_epoch": 568,
        "meta_bstar": 0,
        "meta_mean_motion_dot": -7.1e-07,
        "meta_mean_motion_ddot": 0,
        "tle_line1": "1 61187U 24168C   25341.11511478 -.00000071  00000+0  00000+0 0  9994",
        "tle_line2": "2 61187  54.6424 308.8981 0002286 332.2687  86.4832  1.86229917  5681"
      },
      "geometry": {
        "type": "Point",
        "coordinates": [
          -25.88987656687197,
          31.03103728813545
        ]
      }
    }
  ]
}